{"type": "FeatureCollection", "features": [ {"type": "Feature", "properties": {"norad_id": 31040, "name": "FENGYUN 1C DEB", "group": "fengyun-1c-debris", "lat": 61.158437948742375, "lon": 164.57265022831922, "alt_km": 835.2483150407588, "timestamp": "2025-12-04T10:51:50.385638+00:00", "meta": {"OBJECT_NAME": "FENGYUN 1C DEB", "OBJECT_ID": "1999-025BEJ", "EPOCH": "2025-12-03T11:18:34.850016", "MEAN_MOTION": 14.17652499, "ECCENTRICITY": 0.00618276, "INCLINATION": 98.6576, "RA_OF_ASC_NODE": 327.5548, "ARG_OF_PERICENTER": 220.9797, "MEAN_ANOMALY": 291.3269, "EPHEMERIS_TYPE": 0, "CLASSIFICATION_TYPE": "U", "NORAD_CAT_ID": 31040, "ELEMENT_SET_NO": 999, "REV_AT_EPOCH": 96575, "BSTAR": 0.00045578726, "MEAN_MOTION_DOT": 9.02e-06, "MEAN_MOTION_DDOT": 0}, "tle": {"line1": "1 31040U 99025BEJ 25337.47123669  .00000902  00000+0  45579-3 0  9994", "line2": "2 31040  98.6576 327.5548 0061827 220.9797 291.3269 14.17652499965757"}}, "geometry": {"type": "Point", "coordinates": [164.57265022831922, 61.158437948742375]}}, {"type": "Feature", "properties": {"norad_id": 31041, "name": "FENGYUN 1C DEB", "group": "fengyun-1c-debris", "lat": -7.651695847761791, "lon": 8.04426584706077, "alt_km": 775.0246542681161, "timestamp": "2025-12-04T10:51:50.385648+00:00", "meta": {"OBJECT_NAME": "FENGYUN 1C DEB", "OBJECT_ID": "1999-025BEK", "EPOCH": "2025-12-03T21:20:58.441056", "MEAN_MOTION": 14.17711562, "ECCENTRICITY": 0.008667, "INCLINATION": 99.2055, "RA_OF_ASC_NODE": 6.2126, "ARG_OF_PERICENTER": 345.7803, "MEAN_ANOMALY": 14.0932, "EPHEMERIS_TYPE": 0, "CLASSIFICATION_TYPE": "U", "NORAD_CAT_ID": 31041, "ELEMENT_SET_NO": 999, "REV_AT_EPOCH": 95364, "BSTAR": 0.0041162, "MEAN_MOTION_DOT": 8.662e-05, "MEAN_MOTION_DDOT": 0}, "tle": {"line1": "1 31041U 99025BEK 25337.88956529  .00008662  00000+0  41162-2 0  9993", "line2": "2 31041  99.2055   6.2126 0086670 345.7803  14.0932 14.17711562953646"}}, "geometry": {"type": "Point", "coordinates": [8.04426584706077, -7.651695847761791]}}, {"type": "Feature", "properties": {"norad_id": 31043, "name": "FENGYUN 1C DEB", "group": "fengyun-1c-debris", "lat": -77.01571134940394, "lon": 38.497155248618256, "alt_km": 881.3372114696285, "timestamp": "2025-12-04T10:51:50.385658+00:00", "meta": {"OBJECT_NAME": "FENGYUN 1C DEB", "OBJECT_ID": "1999-025BEM", "EPOCH": "2025-12-02T12:14:08.314944", "MEAN_MOTION": 14.08402875, "ECCENTRICITY": 0.00418241, "INCLINATION": 98.7653, "RA_OF_ASC_NODE": 354.6104, "ARG_OF_PERICENTER": 33.0221, "MEAN_ANOMALY": 121.8076, "EPHEMERIS_TYPE": 0, "CLASSIFICATION_TYPE": "U", "NORAD_CAT_ID": 31043, "ELEMENT_SET_NO": 999, "REV_AT_EPOCH": 95843, "BSTAR": 0.00066949294, "MEAN_MOTION_DOT": 1.113e-05, "MEAN_MOTION_DDOT": 0}, "tle": {"line1": "1 31043U 99025BEM 25336.50981846  .00001113  00000+0  66949-3 0  9998", "line2": "2 31043  98.7653 354.6104 0041824  33.0221 121.8076 14.08402875958437"}}, "geometry": {"type": "Point", "coordinates": [38.497155248618256, -77.01571134940394]}}, {"type": "Feature", "properties": {"norad_id": 31046, "name": "FENGYUN 1C DEB", "group": "fengyun-1c-debris", "lat": -74.49465080161302, "lon": -117.28103686870611, "alt_km": 711.0530875068898, "timestamp": "2025-12-04T10:51:50.385668+00:00", "meta": {"OBJECT_NAME": "FENGYUN 1C DEB", "OBJECT_ID": "1999-025BEQ", "EPOCH": "2025-12-04T00:08:08.592864", "MEAN_MOTION": 14.63129058, "ECCENTRICITY": 0.0048193, "INCLINATION": 98.9684, "RA_OF_ASC_NODE": 96.9312, "ARG_OF_PERICENTER": 130.6887, "MEAN_ANOMALY": 292.9561, "EPHEMERIS_TYPE": 0, "CLASSIFICATION_TYPE": "U", "NORAD_CAT_ID": 31046, "ELEMENT_SET_NO": 999, "REV_AT_EPOCH": 96515, "BSTAR": 0.0094962, "MEAN_MOTION_DOT": 0.00049935, "MEAN_MOTION_DDOT": 0}, "tle": {"line1": "1 31046U 99025BEQ 25338.00565501  .00049935  00000+0  94962-2 0  9993", "line2": "2 31046  98.9684  96.9312 0048193 130.6887 292.9561 14.63129058965157"}}, "geometry": {"type": "Point", "coordinates": [-117.28103686870611, -74.49465080161302]}}, {"type": "Feature", "properties": {"norad_id": 31047, "name": "FENGYUN 1C DEB", "group": "fengyun-1c-debris", "lat": 81.29343758321332, "lon": -112.91812034929922, "alt_km": 845.6479680660868, "timestamp": "2025-12-04T10:51:50.385678+00:00", "meta": {"OBJECT_NAME": "FENGYUN 1C DEB", "OBJECT_ID": "1999-025BER", "EPOCH": "2025-11-30T06:16:53.018400", "MEAN_MOTION": 14.13811848, "ECCENTRICITY": 0.00250553, "INCLINATION": 98.6999, "RA_OF_ASC_NODE": 332.031, "ARG_OF_PERICENTER": 213.9152, "MEAN_ANOMALY": 157.3733, "EPHEMERIS_TYPE": 0, "CLASSIFICATION_TYPE": "U", "NORAD_CAT_ID": 31047, "ELEMENT_SET_NO": 999, "REV_AT_EPOCH": 96183, "BSTAR": 0.00043698289, "MEAN_MOTION_DOT": 7.87e-06, "MEAN_MOTION_DDOT": 0}, "tle": {"line1": "1 31047U 99025BER 25334.26172475  .00000787  00000+0  43698-3 0  9995", "line2": "2 31047  98.6999 332.0310 0025055 213.9152 157.3733 14.13811848961834"}}, "geometry": {"type": "Point", "coordinates": [-112.91812034929922, 81.29343758321332]}}, {"type": "Feature", "properties": {"norad_id": 31051, "name": "FENGYUN 1C DEB", "group": "fengyun-1c-debris", "lat": 26.080890865109897, "lon": -166.37509107816476, "alt_km": 844.0867010079883, "timestamp": "2025-12-04T10:51:50.385689+00:00", "meta": {"OBJECT_NAME": "FENGYUN 1C DEB", "OBJECT_ID": "1999-025BEV", "EPOCH": "2025-11-29T08:36:57.509280", "MEAN_MOTION": 14.03023318, "ECCENTRICITY": 0.00528722, "INCLINATION": 98.8207, "RA_OF_ASC_NODE": 4.3303, "ARG_OF_PERICENTER": 172.6282, "MEAN_ANOMALY": 187.5674, "EPHEMERIS_TYPE": 0, "CLASSIFICATION_TYPE": "U", "NORAD_CAT_ID": 31051, "ELEMENT_SET_NO": 999, "REV_AT_EPOCH": 63631, "BSTAR": 0.00023865273, "MEAN_MOTION_DOT": 3.33e-06, "MEAN_MOTION_DDOT": 0}, "tle": {"line1": "1 31051U 99025BEV 25333.35899895  .00000333  00000+0  23865-3 0  9992", "line2": "2 31051  98.8207   4.3303 0052872 172.6282 187.5674 14.03023318636313"}}, "geometry": {"type": "Point", "coordinates": [-166.37509107816476, 26.080890865109897]}}, {"type": "Feature", "properties": {"norad_id": 31053, "name": "FENGYUN 1C DEB", "group": "fengyun-1c-debris", "lat": 61.93464832915036, "lon": -61.540580942136735, "alt_km": 744.9146547757955, "timestamp": "2025-12-04T10:51:50.385699+00:00", "meta": {"OBJECT_NAME": "FENGYUN 1C DEB", "OBJECT_ID": "1999-025BEX", "EPOCH": "2025-12-03T13:22:09.208992", "MEAN_MOTION": 13.75799689, "ECCENTRICITY": 0.03096045, "INCLINATION": 98.7944, "RA_OF_ASC_NODE": 100.7528, "ARG_OF_PERICENTER": 119.501, "MEAN_ANOMALY": 243.7399, "EPHEMERIS_TYPE": 0, "CLASSIFICATION_TYPE": "U", "NORAD_CAT_ID": 31053, "ELEMENT_SET_NO": 999, "REV_AT_EPOCH": 93350, "BSTAR": 0.003066599, "MEAN_MOTION_DOT": 4.178e-05, "MEAN_MOTION_DDOT": 0}, "tle": {"line1": "1 31053U 99025BEX 25337.55705103  .00004178  00000+0  30666-2 0  9995", "line2": "2 31053  98.7944 100.7528 0309604 119.5010 243.7399 13.75799689933508"}}, "geometry": {"type": "Point", "coordinates": [-61.540580942136735, 61.93464832915036]}}, {"type": "Feature", "properties": {"norad_id": 31054, "name": "FENGYUN 1C DEB", "group": "fengyun-1c-debris", "lat": -74.18616517265637, "lon": 139.05240017794742, "alt_km": 862.4059887140857, "timestamp": "2025-12-04T10:51:50.385709+00:00", "meta": {"OBJECT_NAME": "FENGYUN 1C DEB", "OBJECT_ID": "1999-025BEY", "EPOCH": "2025-12-03T19:12:09.872064", "MEAN_MOTION": 14.1216148, "ECCENTRICITY": 0.00104061, "INCLINATION": 98.6907, "RA_OF_ASC_NODE": 351.1051, "ARG_OF_PERICENTER": 143.9107, "MEAN_ANOMALY": 37.1149, "EPHEMERIS_TYPE": 0, "CLASSIFICATION_TYPE": "U", "NORAD_CAT_ID": 31054, "ELEMENT_SET_NO": 999, "REV_AT_EPOCH": 96637, "BSTAR": 0.00024826457, "MEAN_MOTION_DOT": 4.13e-06, "MEAN_MOTION_DDOT": 0}, "tle": {"line1": "1 31054U 99025BEY 25337.80011426  .00000413  00000+0  24826-3 0  9992", "line2": "2 31054  98.6907 351.1051 0010406 143.9107  37.1149 14.12161480966370"}}, "geometry": {"type": "Point", "coordinates": [139.05240017794742, -74.18616517265637]}}, {"type": "Feature", "properties": {"norad_id": 31055, "name": "FENGYUN 1C DEB", "group": "fengyun-1c-debris", "lat": 71.00966448256688, "lon": -16.745149629246555, "alt_km": 863.8599869521222, "timestamp": "2025-12-04T10:51:50.385720+00:00", "meta": {"OBJECT_NAME": "FENGYUN 1C DEB", "OBJECT_ID": "1999-025BEZ", "EPOCH": "2025-12-03T13:07:36.252768", "MEAN_MOTION": 14.10359273, "ECCENTRICITY": 0.00240093, "INCLINATION": 98.7609, "RA_OF_ASC_NODE": 8.994, "ARG_OF_PERICENTER": 299.0409, "MEAN_ANOMALY": 217.8477, "EPHEMERIS_TYPE": 0, "CLASSIFICATION_TYPE": "U", "NORAD_CAT_ID": 31055, "ELEMENT_SET_NO": 999, "REV_AT_EPOCH": 95992, "BSTAR": 0.00050402979, "MEAN_MOTION_DOT": 8.54e-06, "MEAN_MOTION_DDOT": 0}, "tle": {"line1": "1 31055U 99025BEZ 25337.54694737  .00000854  00000+0  50403-3 0  9995", "line2": "2 31055  98.7609   8.9940 0024009 299.0409 217.8477 14.10359273959928"}}, "geometry": {"type": "Point", "coordinates": [-16.745149629246555, 71.00966448256688]}}, {"type": "Feature", "properties": {"norad_id": 31056, "name": "FENGYUN 1C DEB", "group": "fengyun-1c-debris", "lat": -77.75034737023175, "lon": 5.889252773279575, "alt_km": 851.3145792667065, "timestamp": "2025-12-04T10:51:50.385730+00:00", "meta": {"OBJECT_NAME": "FENGYUN 1C DEB", "OBJECT_ID": "1999-025BFA", "EPOCH": "2025-12-03T10:31:26.895936", "MEAN_MOTION": 14.14283138, "ECCENTRICITY": 0.0026031, "INCLINATION": 98.6671, "RA_OF_ASC_NODE": 320.2748, "ARG_OF_PERICENTER": 9.4767, "MEAN_ANOMALY": 148.9014, "EPHEMERIS_TYPE": 0, "CLASSIFICATION_TYPE": "U", "NORAD_CAT_ID": 31056, "ELEMENT_SET_NO": 999, "REV_AT_EPOCH": 96686, "BSTAR": 0.0005329074, "MEAN_MOTION_DOT": 9.78e-06, "MEAN_MOTION_DDOT": 0}, "tle": {"line1": "1 31056U 99025BFA 25337.43850574  .00000978  00000+0  53291-3 0  9992", "line2": "2 31056  98.6671 320.2748 0026031   9.4767 148.9014 14.14283138966862"}}, "geometry": {"type": "Point", "coordinates": [5.889252773279575, -77.75034737023175]}}]}